NORAD_CAT_ID,OBJECT_NAME,OBJECT_TYPE,EPOCH,MEAN_MOTION,ECCENTRICITY,INCLINATION,RA_OF_ASC_NODE,ARG_OF_PERICENTER,MEAN_ANOMALY,BSTAR,MEAN_MOTION_DOT,MEAN_MOTION_DDOT,TLE_LINE0,TLE_LINE1,TLE_LINE2,SEMIMAJOR_AXIS,PERIOD,APOGEE,PERIGEE,DECAYED
56467.0,STARLINK-6055,PAYLOAD,2024-06-04 10:33:40,14.98328323,0.0003004,69.9987,306.4398,271.3067,88.7747,-1.1053e-05,-2.25e-06,0.0,0 STARLINK-6055,1 56467U 23064V   24156.44004658 -.00000225  00000-0 -11053-4 0  9997,2 56467  69.9987 306.4398 0003004 271.3067  88.7747 14.98328323 59743,6950.198,96.107,574.151,569.975,0.0
56467.0,STARLINK-6055,PAYLOAD,2024-06-04 20:10:28,14.98336819,0.0002591,69.9993,305.4296,270.1009,89.9853,-6.5077e-05,-8.69e-06,0.0,0 STARLINK-6055,1 56467U 23064V   24156.84060229 -.00000869  00000-0 -65077-4 0  9996,2 56467  69.9993 305.4296 0002591 270.1009  89.9853 14.98336819 59446,6950.172,96.107,573.838,570.236,0.0
56467.0,STARLINK-6055,PAYLOAD,2024-06-05 12:11:49,14.98334313,0.0002846,70.0004,303.7465,273.9309,86.1525,-0.0002279,-2.811e-05,0.0,0 STARLINK-6055,1 56467U 23064V   24157.50820838 -.00002811  00000-0 -22790-3 0  9993,2 56467  70.0004 303.7465 0002846 273.9309  86.1525 14.98334313 59901,6950.18,96.107,574.023,570.067,0.0
56467.0,STARLINK-6055,PAYLOAD,2024-06-05 20:12:29,14.98330183,0.0003053,70.0,302.9058,271.5655,88.5155,-2.2066e-05,-3.56e-06,0.0,0 STARLINK-6055,1 56467U 23064V   24157.84200537 -.00000356  00000-0 -22066-4 0  9997,2 56467  70.0000 302.9058 0003053 271.5655  88.5155 14.98330183 59596,6950.192,96.107,574.179,569.935,0.0
56467.0,STARLINK-6055,PAYLOAD,2024-06-06 12:13:49,14.98328875,0.00029,69.9997,301.2221,268.0697,92.013,1.8796e-05,1.31e-06,0.0,0 STARLINK-6055,1 56467U 23064V   24158.50960525  .00000131  00000-0  18796-4 0  9995,2 56467  69.9997 301.2221 0002900 268.0697  92.0130 14.98328875 60050,6950.196,96.107,574.077,570.046,0.0
56467.0,STARLINK-6055,PAYLOAD,2024-06-07 15:28:06,14.98329586,0.0002856,69.9995,298.36,268.7266,91.3566,2.9376e-05,2.58e-06,0.0,0 STARLINK-6055,1 56467U 23064V   24159.64452535  .00000258  00000-0  29376-4 0  9994,2 56467  69.9995 298.3600 0002856 268.7266  91.3566 14.98329586 59866,6950.194,96.107,574.044,570.074,0.0
56467.0,STARLINK-6055,PAYLOAD,2024-06-07 18:40:23,14.9832944,0.0002875,69.9995,298.0233,268.7112,91.3718,2.4685e-05,2.02e-06,0.0,0 STARLINK-6055,1 56467U 23064V   24159.77804558  .00000202  00000-0  24685-4 0  9991,2 56467  69.9995 298.0233 0002875 268.7112  91.3718 14.98329440 60248,6950.195,96.107,574.058,570.061,0.0
56467.0,STARLINK-6055,PAYLOAD,2024-06-08 15:30:07,14.98335748,0.0002996,69.9991,295.834,268.753,91.3286,6.4553e-05,6.77e-06,0.0,0 STARLINK-6055,1 56467U 23064V   24160.64591899  .00000677  00000-0  64553-4 0  9994,2 56467  69.9991 295.8340 0002996 268.7530  91.3286 14.98335748 60019,6950.175,96.107,574.122,569.958,0.0
56467.0,STARLINK-6055,PAYLOAD,2024-06-09 12:19:53,14.98323394,0.000322,69.9989,293.6464,269.8612,90.2178,-9.3638e-05,-1.21e-05,0.0,0 STARLINK-6055,1 56467U 23064V   24161.51381193 -.00001210  00000-0 -93638-4 0  9997,2 56467  69.9989 293.6464 0003220 269.8612  90.2178 14.98323394 60509,6950.213,96.107,574.316,569.84,0.0
56467.0,STARLINK-6055,PAYLOAD,2024-06-09 15:32:09,14.9832315,0.000353,69.9984,293.3086,275.7249,84.3507,-6.555e-05,-8.75e-06,0.0,0 STARLINK-6055,1 56467U 23064V   24161.64733171 -.00000875  00000-0 -65550-4 0  9996,2 56467  69.9984 293.3086 0003530 275.7249  84.3507 14.98323150 60169,6950.214,96.107,574.532,569.626,0.0
56467.0,STARLINK-6055,PAYLOAD,2024-06-10 12:21:53,14.98333301,0.0003149,69.9989,291.119,271.2416,88.8382,2.0855e-05,1.56e-06,0.0,0 STARLINK-6055,1 56467U 23064V   24162.51520324  .00000156  00000-0  20855-4 0  9996,2 56467  69.9989 291.1190 0003149 271.2416  88.8382 14.98333301 60652,6950.183,96.107,574.236,569.859,0.0
56467.0,STARLINK-6055,PAYLOAD,2024-06-10 13:58:01,14.98333168,0.000285,70.0007,290.9546,262.1166,97.9669,2.7375e-05,2.34e-06,0.0,0 STARLINK-6055,1 56467U 23064V   24162.58196283  .00000234  00000-0  27375-4 0  9997,2 56467  70.0007 290.9546 0002850 262.1166  97.9669 14.98333168 60309,6950.183,96.107,574.029,570.067,0.0
56467.0,STARLINK-6055,PAYLOAD,2024-06-10 18:46:25,14.98339159,0.0003012,70.0004,290.4503,264.6407,95.4408,4.4863e-05,4.42e-06,0.0,0 STARLINK-6055,1 56467U 23064V   24162.78223770  .00000442  00000-0  44863-4 0  9993,2 56467  70.0004 290.4503 0003012 264.6407  95.4408 14.98339159 60333,6950.165,96.106,574.123,569.936,0.0
56467.0,STARLINK-6055,PAYLOAD,2024-06-11 14:00:02,14.98349363,0.000291,70.001,288.4306,262.7142,97.3686,-0.00032051,-3.917e-05,0.0,0 STARLINK-6055,1 56467U 23064V   24163.58336157 -.00003917  00000-0 -32051-3 0  9993,2 56467  70.0010 288.4306 0002910 262.7142  97.3686 14.98349363 60459,6950.133,96.106,574.021,569.976,0.0
56467.0,STARLINK-6055,PAYLOAD,2024-06-12 01:12:59,14.98328767,0.0002703,70.0023,287.2514,268.1532,91.9318,-1.6752e-05,-2.93e-06,0.0,0 STARLINK-6055,1 56467U 23064V   24164.05068543 -.00000293  00000-0 -16752-4 0  9992,2 56467  70.0023 287.2514 0002703 268.1532  91.9318 14.98328767 60888,6950.197,96.107,573.94,570.183,0.0
56467.0,STARLINK-6055,PAYLOAD,2024-06-12 17:14:20,14.98329142,0.0002837,70.0007,285.5693,265.4492,94.6343,-9.4548e-05,-1.221e-05,0.0,0 STARLINK-6055,1 56467U 23064V   24164.71828765 -.00001221  00000-0 -94548-4 0  9996,2 56467  70.0007 285.5693 0002837 265.4492  94.6343 14.98329142 60620,6950.196,96.107,574.032,570.089,0.0
56467.0,STARLINK-6055,PAYLOAD,2024-06-13 12:27:56,14.98329938,0.0002839,70.0011,283.55,264.3577,95.7258,3.2808e-05,2.99e-06,0.0,0 STARLINK-6055,1 56467U 23064V   24165.51940228  .00000299  00000-0  32808-4 0  9997,2 56467  70.0011 283.5500 0002839 264.3577  95.7258 14.98329938 61108,6950.193,96.107,574.031,570.085,0.0
56467.0,STARLINK-6055,PAYLOAD,2024-06-13 14:04:04,14.98332913,0.0003032,70.0003,283.3798,269.5449,90.5363,1.9787e-05,1.43e-06,0.0,0 STARLINK-6055,1 56467U 23064V   24165.58616064  .00000143  00000-0  19787-4 0  9991,2 56467  70.0003 283.3798 0003032 269.5449  90.5363 14.98332913 60754,6950.184,96.107,574.156,569.942,0.0
56467.0,STARLINK-6055,PAYLOAD,2024-06-13 17:16:20,14.98332017,0.0003006,70.0006,283.0442,271.2526,88.8289,3.5004e-05,3.25e-06,0.0,0 STARLINK-6055,1 56467U 23064V   24165.71968090  .00000325  00000-0  35004-4 0  9997,2 56467  70.0006 283.0442 0003006 271.2526  88.8289 14.98332017 60771,6950.187,96.107,574.141,569.962,0.0
56467.0,STARLINK-6055,PAYLOAD,2024-06-14 14:06:05,14.9832581,0.0003055,69.9996,280.8537,269.1158,90.9651,5.228e-06,-3.1e-07,0.0,0 STARLINK-6055,1 56467U 23064V   24166.58756549 -.00000031  00000-0  52280-5 0  9998,2 56467  69.9996 280.8537 0003055 269.1158  90.9651 14.98325810 61262,6950.206,96.107,574.194,569.948,0.0
56467.0,STARLINK-6055,PAYLOAD,2024-06-14 17:18:21,14.98325513,0.0002969,70.0,280.5157,272.7941,87.2878,3.4133e-05,3.14e-06,0.0,0 STARLINK-6055,1 56467U 23064V   24166.72108555  .00000314  00000-0  34133-4 0  9991,2 56467  70.0000 280.5157 0002969 272.7941  87.2878 14.98325513 60921,6950.207,96.107,574.135,570.008,0.0
56467.0,STARLINK-6055,PAYLOAD,2024-06-15 14:08:05,14.98337542,0.0003089,69.9999,278.3293,269.1491,90.9314,5.0371e-05,5.08e-06,0.0,0 STARLINK-6055,1 56467U 23064V   24167.58895653  .00000508  00000-0  50371-4 0  9995,2 56467  69.9999 278.3293 0003089 269.1491  90.9314 14.98337542 61051,6950.17,96.107,574.181,569.888,0.0
56467.0,STARLINK-6055,PAYLOAD,2024-06-15 17:20:21,14.98339414,0.0003051,70.0,277.9925,269.724,90.3569,5.9389e-05,6.16e-06,0.0,0 STARLINK-6055,1 56467U 23064V   24167.72247437  .00000616  00000-0  59389-4 0  9990,2 56467  70.0000 277.9925 0003051 269.7240  90.3569 14.98339414 61079,6950.164,96.106,574.149,569.908,0.0
56467.0,STARLINK-6055,PAYLOAD,2024-06-16 14:10:06,14.98333243,0.0002996,70.0,275.8048,269.7684,90.3131,5.1934e-05,5.27e-06,0.0,0 STARLINK-6055,1 56467U 23064V   24168.59035641  .00000527  00000-0  51934-4 0  9997,2 56467  70.0000 275.8048 0002996 269.7684  90.3131 14.98333243 61205,6950.183,96.107,574.13,569.966,0.0
56467.0,STARLINK-6055,PAYLOAD,2024-06-16 17:22:23,14.98332098,0.0003044,70.0001,275.4684,270.0549,90.0261,3.2851e-05,2.99e-06,0.0,0 STARLINK-6055,1 56467U 23064V   24168.72387744  .00000299  00000-0  32851-4 0  9999,2 56467  70.0001 275.4684 0003044 270.0549  90.0261 14.98332098 61228,6950.186,96.107,574.167,569.936,0.0
56467.0,STARLINK-6055,PAYLOAD,2024-06-17 10:59:53,14.98296682,0.000297,70.0008,273.6187,265.9047,94.1772,0.00037589,4.391e-05,0.0,0 STARLINK-6055,1 56467U 23064V   24169.45825324  .00004391  00000-0  37589-3 0  9990,2 56467  70.0008 273.6187 0002970 265.9047  94.1772 14.98296682 61338,6950.296,96.109,574.225,570.097,0.0
56467.0,STARLINK-6055,PAYLOAD,2024-06-18 12:38:00,14.98334801,0.0003006,70.0,270.9241,270.2109,89.8706,5.2822e-05,5.37e-06,0.0,0 STARLINK-6055,1 56467U 23064V   24170.52639616  .00000537  00000-0  52822-4 0  9993,2 56467  70.0000 270.9241 0003006 270.2109  89.8706 14.98334801 61851,6950.178,96.107,574.132,569.954,0.0
56467.0,STARLINK-6055,PAYLOAD,2024-06-18 14:14:08,14.98335306,0.0002994,70.0,270.7557,270.644,89.4376,5.8531e-05,6.06e-06,0.0,0 STARLINK-6055,1 56467U 23064V   24170.59315555  .00000606  00000-0  58531-4 0  9993,2 56467  70.0000 270.7557 0002994 270.6440  89.4376 14.98335306 61508,6950.176,96.107,574.122,569.961,0.0
56467.0,STARLINK-6055,PAYLOAD,2024-06-18 15:50:16,14.98335572,0.0002989,70.0,270.5873,270.8719,89.2097,6.5314e-05,6.87e-06,0.0,0 STARLINK-6055,1 56467U 23064V   24170.65991501  .00000687  00000-0  65314-4 0  9997,2 56467  70.0000 270.5873 0002989 270.8719  89.2097 14.98335572 61516,6950.176,96.107,574.118,569.963,0.0
56467.0,STARLINK-6055,PAYLOAD,2024-06-19 12:40:01,14.98326649,0.0002994,69.9995,268.3983,268.7432,91.3384,5.2808e-05,5.37e-06,0.0,0 STARLINK-6055,1 56467U 23064V   24171.52780081  .00000537  00000-0  52808-4 0  9991,2 56467  69.9995 268.3983 0002994 268.7432  91.3384 14.98326649 62000,6950.203,96.107,574.149,569.987,0.0
